[{"OBJECT_NAME":"UNISAT-7","OBJECT_ID":"2021-022P","EPOCH":"2026-03-09T16:28:31.560096","MEAN_MOTION":15.37617151,"ECCENTRICITY":0.00117035,"INCLINATION":97.3969,"RA_OF_ASC_NODE":332.7353,"ARG_OF_PERICENTER":74.8463,"MEAN_ANOMALY":285.4075,"EPHEMERIS_TYPE":0,"CLASSIFICATION_TYPE":"U","NORAD_CAT_ID":47945,"ELEMENT_SET_NO":999,"REV_AT_EPOCH":27455,"BSTAR":0.000470835,"MEAN_MOTION_DOT":0.00017358,"MEAN_MOTION_DDOT":0},{"OBJECT_NAME":"TRANSPORTER-12 OBJECT CL","OBJECT_ID":"2025-009CL","EPOCH":"2026-03-09T22:02:51.160416","MEAN_MOTION":15.38834312,"ECCENTRICITY":0.00028913,"INCLINATION":97.3807,"RA_OF_ASC_NODE":152.8971,"ARG_OF_PERICENTER":194.4406,"MEAN_ANOMALY":165.6757,"EPHEMERIS_TYPE":0,"CLASSIFICATION_TYPE":"U","NORAD_CAT_ID":62691,"ELEMENT_SET_NO":999,"REV_AT_EPOCH":6389,"BSTAR":0.0010087925,"MEAN_MOTION_DOT":0.00038813,"MEAN_MOTION_DDOT":0}]
